*******************************************************************************
Ephemeris / WWW_USER Mon Jul 15 19:29:58 2024 Pasadena, USA      / Horizons    
*******************************************************************************
Target body name: Hale-Bopp (C/1995 O1)           {source: JPL#226}
Center body name: Earth (399)                     {source: DE441}
Center-site name: Gemini South Obs., Cerro Pachon
*******************************************************************************
Start time      : A.D. 2018-Dec-19 23:52:00.0000 UT      
Stop  time      : A.D. 2018-Dec-20 09:28:00.0000 UT      
Step-size       : 1 minutes
*******************************************************************************
Target pole/equ : undefined
Target radii    : 30. km                                                       
Center geodetic : 289.2634, -30.2406227, 2.71233  {E-lon(deg),Lat(deg),Alt(km)}
Center cylindric: 289.2634,5517.21435,-3194.81213 {E-lon(deg),Dxy(km),Dz(km)}
Center pole/equ : ITRF93                          {East-longitude positive}
Center radii    : 6378.137, 6378.137, 6356.752 km {Equator_a, b, pole_c}       
Target primary  : Sun
Vis. interferer : MOON (R_eq= 1737.400) km        {source: DE441}
Rel. light bend : Sun                             {source: DE441}
Rel. lght bnd GM: 1.3271E+11 km^3/s^2                                          
Small-body perts: Yes                             {source: SB441-N16}
Atmos refraction: NO (AIRLESS)
RA format       : HMS
Time format     : CAL 
Calendar mode   : Mixed Julian/Gregorian
RTS-only print  : NO       
EOP file        : eop.240715.p241008                                           
EOP coverage    : DATA-BASED 1962-JAN-20 TO 2024-JUL-15. PREDICTS-> 2024-OCT-07
Units conversion: 1 au= 149597870.700 km, c= 299792.458 km/s, 1 day= 86400.0 s 
Table cut-offs 1: Elevation (-90.0deg=NO ),Airmass (>38.000=NO), Daylight (YES)
Table cut-offs 2: Solar elongation (  0.0,180.0=NO ),Local Hour Angle( 0.0=NO )
Table cut-offs 3: RA/DEC angular rate (     0.0=NO )                           
*******************************************************************************
Initial IAU76/J2000 heliocentric ecliptic osculating elements (au, days, deg.):
  EPOCH=  2459837.5 ! 2022-Sep-15.0000000 (TDB)    RMSW= n.a.                  
   EC= .9949810027633206   QR= .890537663547794    TP= 2450537.1349071441      
   OM= 282.7334213961641   W= 130.4146670659176    IN= 89.28759424740302       
  Equivalent ICRF heliocentric cartesian coordinates (au, au/d):
   X= 3.907631452214869E+00  Y=-1.373895334060347E+00  Z=-4.624358508575312E+01
  VX= 3.778244409519935E-04 VY=-5.803173067116371E-04 VZ=-3.255716412104052E-03
Comet physical (GM= km^3/s^2; RAD= km):                                        
   GM= n.a.                RAD= 30.                                            
   M1=  4.8      M2=  n.a.     k1=  4.     k2= n.a.     PHCOF= n.a.            
*******************************************************************************
 Date__(UT)__HR:MN     R.A._________(ICRF)_________DEC
******************************************************
$$SOE
 2018-Dec-20 01:56  m  22 24 35.597685 -85 02 34.16675
 2018-Dec-20 01:57  m  22 24 35.613716 -85 02 34.11030
 2018-Dec-20 01:58  m  22 24 35.629750 -85 02 34.05385
 2018-Dec-20 01:59  m  22 24 35.645786 -85 02 33.99741
 2018-Dec-20 02:00  m  22 24 35.661826 -85 02 33.94096
 2018-Dec-20 02:01  m  22 24 35.677869 -85 02 33.88451
 2018-Dec-20 02:02  m  22 24 35.693914 -85 02 33.82806
 2018-Dec-20 02:03  m  22 24 35.709962 -85 02 33.77161
 2018-Dec-20 02:04  m  22 24 35.726013 -85 02 33.71516
 2018-Dec-20 02:05  m  22 24 35.742068 -85 02 33.65870
 2018-Dec-20 02:06  m  22 24 35.758125 -85 02 33.60225
 2018-Dec-20 02:07  m  22 24 35.774185 -85 02 33.54580
 2018-Dec-20 02:08  m  22 24 35.790247 -85 02 33.48934
 2018-Dec-20 02:09  m  22 24 35.806313 -85 02 33.43289
 2018-Dec-20 02:10  m  22 24 35.822382 -85 02 33.37643
 2018-Dec-20 02:11  m  22 24 35.838453 -85 02 33.31997
 2018-Dec-20 02:12  m  22 24 35.854528 -85 02 33.26352
 2018-Dec-20 02:13  m  22 24 35.870605 -85 02 33.20706
 2018-Dec-20 02:14  m  22 24 35.886686 -85 02 33.15060
 2018-Dec-20 02:15  m  22 24 35.902769 -85 02 33.09414
 2018-Dec-20 02:16  m  22 24 35.918856 -85 02 33.03768
 2018-Dec-20 02:17  m  22 24 35.934945 -85 02 32.98122
 2018-Dec-20 02:18  m  22 24 35.951037 -85 02 32.92475
 2018-Dec-20 02:19  m  22 24 35.967132 -85 02 32.86829
 2018-Dec-20 02:20  m  22 24 35.983230 -85 02 32.81183
 2018-Dec-20 02:21  m  22 24 35.999331 -85 02 32.75536
 2018-Dec-20 02:22  m  22 24 36.015435 -85 02 32.69890
 2018-Dec-20 02:23  m  22 24 36.031542 -85 02 32.64243
 2018-Dec-20 02:24  m  22 24 36.047652 -85 02 32.58597
 2018-Dec-20 02:25  m  22 24 36.063765 -85 02 32.52950
 2018-Dec-20 02:26  m  22 24 36.079881 -85 02 32.47304
 2018-Dec-20 02:27  m  22 24 36.096000 -85 02 32.41657
 2018-Dec-20 02:28  m  22 24 36.112121 -85 02 32.36010
 2018-Dec-20 02:29  m  22 24 36.128246 -85 02 32.30363
 2018-Dec-20 02:30  m  22 24 36.144374 -85 02 32.24716
 2018-Dec-20 02:31  m  22 24 36.160505 -85 02 32.19070
 2018-Dec-20 02:32  m  22 24 36.176638 -85 02 32.13423
 2018-Dec-20 02:33  m  22 24 36.192775 -85 02 32.07776
 2018-Dec-20 02:34  m  22 24 36.208915 -85 02 32.02129
 2018-Dec-20 02:35  m  22 24 36.225057 -85 02 31.96482
 2018-Dec-20 02:36  m  22 24 36.241203 -85 02 31.90834
 2018-Dec-20 02:37  m  22 24 36.257352 -85 02 31.85187
 2018-Dec-20 02:38  m  22 24 36.273503 -85 02 31.79540
 2018-Dec-20 02:39  m  22 24 36.289658 -85 02 31.73893
 2018-Dec-20 02:40  m  22 24 36.305816 -85 02 31.68246
 2018-Dec-20 02:41  m  22 24 36.321976 -85 02 31.62598
 2018-Dec-20 02:42  m  22 24 36.338140 -85 02 31.56951
 2018-Dec-20 02:43  m  22 24 36.354307 -85 02 31.51304
 2018-Dec-20 02:44  m  22 24 36.370476 -85 02 31.45656
 2018-Dec-20 02:45  m  22 24 36.386649 -85 02 31.40009
 2018-Dec-20 02:46  m  22 24 36.402825 -85 02 31.34362
 2018-Dec-20 02:47  m  22 24 36.419003 -85 02 31.28714
 2018-Dec-20 02:48  m  22 24 36.435185 -85 02 31.23067
 2018-Dec-20 02:49  m  22 24 36.451370 -85 02 31.17419
 2018-Dec-20 02:50  m  22 24 36.467557 -85 02 31.11772
 2018-Dec-20 02:51  m  22 24 36.483748 -85 02 31.06124
 2018-Dec-20 02:52  m  22 24 36.499942 -85 02 31.00477
 2018-Dec-20 02:53  m  22 24 36.516138 -85 02 30.94829
 2018-Dec-20 02:54  m  22 24 36.532338 -85 02 30.89182
 2018-Dec-20 02:55  m  22 24 36.548541 -85 02 30.83534
 2018-Dec-20 02:56  m  22 24 36.564747 -85 02 30.77887
 2018-Dec-20 02:57  m  22 24 36.580956 -85 02 30.72239
 2018-Dec-20 02:58  m  22 24 36.597167 -85 02 30.66592
 2018-Dec-20 02:59  m  22 24 36.613382 -85 02 30.60944
 2018-Dec-20 03:00  m  22 24 36.629600 -85 02 30.55297
 2018-Dec-20 03:01  m  22 24 36.645821 -85 02 30.49649
 2018-Dec-20 03:02  m  22 24 36.662045 -85 02 30.44001
 2018-Dec-20 03:03  m  22 24 36.678272 -85 02 30.38354
 2018-Dec-20 03:04  m  22 24 36.694502 -85 02 30.32706
 2018-Dec-20 03:05  m  22 24 36.710735 -85 02 30.27059
 2018-Dec-20 03:06  m  22 24 36.726971 -85 02 30.21411
 2018-Dec-20 03:07  m  22 24 36.743210 -85 02 30.15764
 2018-Dec-20 03:08  m  22 24 36.759452 -85 02 30.10116
 2018-Dec-20 03:09  m  22 24 36.775697 -85 02 30.04469
 2018-Dec-20 03:10  m  22 24 36.791945 -85 02 29.98821
 2018-Dec-20 03:11  m  22 24 36.808196 -85 02 29.93174
 2018-Dec-20 03:12  m  22 24 36.824450 -85 02 29.87526
 2018-Dec-20 03:13  m  22 24 36.840708 -85 02 29.81879
 2018-Dec-20 03:14  m  22 24 36.856968 -85 02 29.76231
 2018-Dec-20 03:15  m  22 24 36.873231 -85 02 29.70584
 2018-Dec-20 03:16  m  22 24 36.889497 -85 02 29.64936
 2018-Dec-20 03:17  m  22 24 36.905767 -85 02 29.59289
 2018-Dec-20 03:18  m  22 24 36.922039 -85 02 29.53642
 2018-Dec-20 03:19  m  22 24 36.938314 -85 02 29.47994
 2018-Dec-20 03:20  m  22 24 36.954593 -85 02 29.42347
 2018-Dec-20 03:21  m  22 24 36.970874 -85 02 29.36700
 2018-Dec-20 03:22  m  22 24 36.987159 -85 02 29.31053
 2018-Dec-20 03:23  m  22 24 37.003446 -85 02 29.25405
 2018-Dec-20 03:24  m  22 24 37.019737 -85 02 29.19758
 2018-Dec-20 03:25  m  22 24 37.036030 -85 02 29.14111
 2018-Dec-20 03:26  m  22 24 37.052327 -85 02 29.08464
 2018-Dec-20 03:27  m  22 24 37.068626 -85 02 29.02817
 2018-Dec-20 03:28  m  22 24 37.084929 -85 02 28.97170
 2018-Dec-20 03:29  m  22 24 37.101234 -85 02 28.91523
 2018-Dec-20 03:30  m  22 24 37.117543 -85 02 28.85876
 2018-Dec-20 03:31  m  22 24 37.133855 -85 02 28.80229
 2018-Dec-20 03:32  m  22 24 37.150169 -85 02 28.74582
 2018-Dec-20 03:33  m  22 24 37.166487 -85 02 28.68936
 2018-Dec-20 03:34  m  22 24 37.182808 -85 02 28.63289
 2018-Dec-20 03:35  m  22 24 37.199131 -85 02 28.57642
 2018-Dec-20 03:36  m  22 24 37.215458 -85 02 28.51996
 2018-Dec-20 03:37  m  22 24 37.231788 -85 02 28.46349
 2018-Dec-20 03:38  m  22 24 37.248121 -85 02 28.40702
 2018-Dec-20 03:39  m  22 24 37.264456 -85 02 28.35056
 2018-Dec-20 03:40  m  22 24 37.280795 -85 02 28.29410
 2018-Dec-20 03:41  m  22 24 37.297137 -85 02 28.23763
 2018-Dec-20 03:42  m  22 24 37.313482 -85 02 28.18117
 2018-Dec-20 03:43  m  22 24 37.329830 -85 02 28.12471
 2018-Dec-20 03:44  m  22 24 37.346180 -85 02 28.06825
 2018-Dec-20 03:45  m  22 24 37.362534 -85 02 28.01178
 2018-Dec-20 03:46  m  22 24 37.378891 -85 02 27.95532
 2018-Dec-20 03:47  m  22 24 37.395251 -85 02 27.89886
 2018-Dec-20 03:48  m  22 24 37.411614 -85 02 27.84241
 2018-Dec-20 03:49  m  22 24 37.427979 -85 02 27.78595
 2018-Dec-20 03:50  m  22 24 37.444348 -85 02 27.72949
 2018-Dec-20 03:51  m  22 24 37.460720 -85 02 27.67303
 2018-Dec-20 03:52  m  22 24 37.477095 -85 02 27.61658
 2018-Dec-20 03:53  m  22 24 37.493472 -85 02 27.56012
 2018-Dec-20 03:54  m  22 24 37.509853 -85 02 27.50367
 2018-Dec-20 03:55  m  22 24 37.526237 -85 02 27.44721
 2018-Dec-20 03:56  m  22 24 37.542624 -85 02 27.39076
 2018-Dec-20 03:57  m  22 24 37.559013 -85 02 27.33431
 2018-Dec-20 03:58  m  22 24 37.575406 -85 02 27.27786
 2018-Dec-20 03:59  m  22 24 37.591802 -85 02 27.22141
